<?xml version="1.0" encoding="UTF-8"?>
<ndm xmlns:xsi="http://www.w3.org/2001/XMLSchema-instance" xsi:noNamespaceSchemaLocation="https://sanaregistry.org/r/ndmxml_unqualified/ndmxml-2.0.0-master-2.0.xsd">
<omm id="CCSDS_OMM_VERS" version="2.0">
<header><CREATION_DATE/><ORIGINATOR/></header><body><segment><metadata><OBJECT_NAME>KUIPER-00061</OBJECT_NAME><OBJECT_ID>2025-134X</OBJECT_ID><CENTER_NAME>EARTH</CENTER_NAME><REF_FRAME>TEME</REF_FRAME><TIME_SYSTEM>UTC</TIME_SYSTEM><MEAN_ELEMENT_THEORY>SGP4</MEAN_ELEMENT_THEORY></metadata><data><meanElements><EPOCH>2025-08-05T03:37:04.156320</EPOCH><MEAN_MOTION>15.35847684</MEAN_MOTION><ECCENTRICITY>.0005385</ECCENTRICITY><INCLINATION>51.8750</INCLINATION><RA_OF_ASC_NODE>125.1335</RA_OF_ASC_NODE><ARG_OF_PERICENTER>261.3662</ARG_OF_PERICENTER><MEAN_ANOMALY>98.6714</MEAN_ANOMALY></meanElements><tleParameters><EPHEMERIS_TYPE>0</EPHEMERIS_TYPE><CLASSIFICATION_TYPE>U</CLASSIFICATION_TYPE><NORAD_CAT_ID>64521</NORAD_CAT_ID><ELEMENT_SET_NO>999</ELEMENT_SET_NO><REV_AT_EPOCH>734</REV_AT_EPOCH><BSTAR>.96237E-3</BSTAR><MEAN_MOTION_DOT>.33868E-3</MEAN_MOTION_DOT><MEAN_MOTION_DDOT>0</MEAN_MOTION_DDOT></tleParameters></data></segment></body></omm>
<omm id="CCSDS_OMM_VERS" version="2.0">
<header><CREATION_DATE/><ORIGINATOR/></header><body><segment><metadata><OBJECT_NAME>KUIPER-00062</OBJECT_NAME><OBJECT_ID>2025-134Y</OBJECT_ID><CENTER_NAME>EARTH</CENTER_NAME><REF_FRAME>TEME</REF_FRAME><TIME_SYSTEM>UTC</TIME_SYSTEM><MEAN_ELEMENT_THEORY>SGP4</MEAN_ELEMENT_THEORY></metadata><data><meanElements><EPOCH>2025-08-05T14:00:01.999872</EPOCH><MEAN_MOTION>15.27329732</MEAN_MOTION><ECCENTRICITY>.0008101</ECCENTRICITY><INCLINATION>51.8765</INCLINATION><RA_OF_ASC_NODE>123.3300</RA_OF_ASC_NODE><ARG_OF_PERICENTER>256.0242</ARG_OF_PERICENTER><MEAN_ANOMALY>219.5954</MEAN_ANOMALY></meanElements><tleParameters><EPHEMERIS_TYPE>0</EPHEMERIS_TYPE><CLASSIFICATION_TYPE>U</CLASSIFICATION_TYPE><NORAD_CAT_ID>64522</NORAD_CAT_ID><ELEMENT_SET_NO>999</ELEMENT_SET_NO><REV_AT_EPOCH>740</REV_AT_EPOCH><BSTAR>-.42237E-1</BSTAR><MEAN_MOTION_DOT>-.1054037E-1</MEAN_MOTION_DOT><MEAN_MOTION_DDOT>0</MEAN_MOTION_DDOT></tleParameters></data></segment></body></omm>
<omm id="CCSDS_OMM_VERS" version="2.0">
<header><CREATION_DATE/><ORIGINATOR/></header><body><segment><metadata><OBJECT_NAME>KUIPER-00063</OBJECT_NAME><OBJECT_ID>2025-134Z</OBJECT_ID><CENTER_NAME>EARTH</CENTER_NAME><REF_FRAME>TEME</REF_FRAME><TIME_SYSTEM>UTC</TIME_SYSTEM><MEAN_ELEMENT_THEORY>SGP4</MEAN_ELEMENT_THEORY></metadata><data><meanElements><EPOCH>2025-08-05T14:00:01.999872</EPOCH><MEAN_MOTION>15.30596166</MEAN_MOTION><ECCENTRICITY>.0003902</ECCENTRICITY><INCLINATION>51.8772</INCLINATION><RA_OF_ASC_NODE>122.8844</RA_OF_ASC_NODE><ARG_OF_PERICENTER>218.9163</ARG_OF_PERICENTER><MEAN_ANOMALY>96.2541</MEAN_ANOMALY></meanElements><tleParameters><EPHEMERIS_TYPE>0</EPHEMERIS_TYPE><CLASSIFICATION_TYPE>U</CLASSIFICATION_TYPE><NORAD_CAT_ID>64523</NORAD_CAT_ID><ELEMENT_SET_NO>999</ELEMENT_SET_NO><REV_AT_EPOCH>740</REV_AT_EPOCH><BSTAR>.2366E-2</BSTAR><MEAN_MOTION_DOT>.71336E-3</MEAN_MOTION_DOT><MEAN_MOTION_DDOT>0</MEAN_MOTION_DDOT></tleParameters></data></segment></body></omm>
<omm id="CCSDS_OMM_VERS" version="2.0">
<header><CREATION_DATE/><ORIGINATOR/></header><body><segment><metadata><OBJECT_NAME>KUIPER-00064</OBJECT_NAME><OBJECT_ID>2025-134AA</OBJECT_ID><CENTER_NAME>EARTH</CENTER_NAME><REF_FRAME>TEME</REF_FRAME><TIME_SYSTEM>UTC</TIME_SYSTEM><MEAN_ELEMENT_THEORY>SGP4</MEAN_ELEMENT_THEORY></metadata><data><meanElements><EPOCH>2025-08-05T14:00:01.999872</EPOCH><MEAN_MOTION>15.34485113</MEAN_MOTION><ECCENTRICITY>.0000982</ECCENTRICITY><INCLINATION>51.8772</INCLINATION><RA_OF_ASC_NODE>122.6536</RA_OF_ASC_NODE><ARG_OF_PERICENTER>295.8623</ARG_OF_PERICENTER><MEAN_ANOMALY>139.3124</MEAN_ANOMALY></meanElements><tleParameters><EPHEMERIS_TYPE>0</EPHEMERIS_TYPE><CLASSIFICATION_TYPE>U</CLASSIFICATION_TYPE><NORAD_CAT_ID>64524</NORAD_CAT_ID><ELEMENT_SET_NO>999</ELEMENT_SET_NO><REV_AT_EPOCH>771</REV_AT_EPOCH><BSTAR>-.29193E-1</BSTAR><MEAN_MOTION_DOT>-.908425E-2</MEAN_MOTION_DOT><MEAN_MOTION_DDOT>0</MEAN_MOTION_DDOT></tleParameters></data></segment></body></omm>
<omm id="CCSDS_OMM_VERS" version="2.0">
<header><CREATION_DATE/><ORIGINATOR/></header><body><segment><metadata><OBJECT_NAME>KUIPER-00065</OBJECT_NAME><OBJECT_ID>2025-134AB</OBJECT_ID><CENTER_NAME>EARTH</CENTER_NAME><REF_FRAME>TEME</REF_FRAME><TIME_SYSTEM>UTC</TIME_SYSTEM><MEAN_ELEMENT_THEORY>SGP4</MEAN_ELEMENT_THEORY></metadata><data><meanElements><EPOCH>2025-08-05T14:00:01.999872</EPOCH><MEAN_MOTION>15.23919298</MEAN_MOTION><ECCENTRICITY>.0008101</ECCENTRICITY><INCLINATION>51.8770</INCLINATION><RA_OF_ASC_NODE>123.6147</RA_OF_ASC_NODE><ARG_OF_PERICENTER>265.8410</ARG_OF_PERICENTER><MEAN_ANOMALY>17.5369</MEAN_ANOMALY></meanElements><tleParameters><EPHEMERIS_TYPE>0</EPHEMERIS_TYPE><CLASSIFICATION_TYPE>U</CLASSIFICATION_TYPE><NORAD_CAT_ID>64525</NORAD_CAT_ID><ELEMENT_SET_NO>999</ELEMENT_SET_NO><REV_AT_EPOCH>764</REV_AT_EPOCH><BSTAR>-.33819E-1</BSTAR><MEAN_MOTION_DOT>-.770422E-2</MEAN_MOTION_DOT><MEAN_MOTION_DDOT>0</MEAN_MOTION_DDOT></tleParameters></data></segment></body></omm>
<omm id="CCSDS_OMM_VERS" version="2.0">
<header><CREATION_DATE/><ORIGINATOR/></header><body><segment><metadata><OBJECT_NAME>KUIPER-00066</OBJECT_NAME><OBJECT_ID>2025-134AC</OBJECT_ID><CENTER_NAME>EARTH</CENTER_NAME><REF_FRAME>TEME</REF_FRAME><TIME_SYSTEM>UTC</TIME_SYSTEM><MEAN_ELEMENT_THEORY>SGP4</MEAN_ELEMENT_THEORY></metadata><data><meanElements><EPOCH>2025-08-05T14:00:01.999872</EPOCH><MEAN_MOTION>15.34776049</MEAN_MOTION><ECCENTRICITY>.0001114</ECCENTRICITY><INCLINATION>51.8770</INCLINATION><RA_OF_ASC_NODE>122.7015</RA_OF_ASC_NODE><ARG_OF_PERICENTER>198.9600</ARG_OF_PERICENTER><MEAN_ANOMALY>205.8818</MEAN_ANOMALY></meanElements><tleParameters><EPHEMERIS_TYPE>0</EPHEMERIS_TYPE><CLASSIFICATION_TYPE>U</CLASSIFICATION_TYPE><NORAD_CAT_ID>64526</NORAD_CAT_ID><ELEMENT_SET_NO>999</ELEMENT_SET_NO><REV_AT_EPOCH>741</REV_AT_EPOCH><BSTAR>-.26845E-1</BSTAR><MEAN_MOTION_DOT>-.848137E-2</MEAN_MOTION_DOT><MEAN_MOTION_DDOT>0</MEAN_MOTION_DDOT></tleParameters></data></segment></body></omm>
<omm id="CCSDS_OMM_VERS" version="2.0">
<header><CREATION_DATE/><ORIGINATOR/></header><body><segment><metadata><OBJECT_NAME>KUIPER-00069</OBJECT_NAME><OBJECT_ID>2025-151A</OBJECT_ID><CENTER_NAME>EARTH</CENTER_NAME><REF_FRAME>TEME</REF_FRAME><TIME_SYSTEM>UTC</TIME_SYSTEM><MEAN_ELEMENT_THEORY>SGP4</MEAN_ELEMENT_THEORY></metadata><data><meanElements><EPOCH>2025-08-05T13:41:40.081920</EPOCH><MEAN_MOTION>15.35821233</MEAN_MOTION><ECCENTRICITY>.000499</ECCENTRICITY><INCLINATION>51.8775</INCLINATION><RA_OF_ASC_NODE>189.6943</RA_OF_ASC_NODE><ARG_OF_PERICENTER>207.4373</ARG_OF_PERICENTER><MEAN_ANOMALY>152.6350</MEAN_ANOMALY></meanElements><tleParameters><EPHEMERIS_TYPE>0</EPHEMERIS_TYPE><CLASSIFICATION_TYPE>U</CLASSIFICATION_TYPE><NORAD_CAT_ID>64816</NORAD_CAT_ID><ELEMENT_SET_NO>999</ELEMENT_SET_NO><REV_AT_EPOCH>429</REV_AT_EPOCH><BSTAR>.35162E-3</BSTAR><MEAN_MOTION_DOT>.12082E-3</MEAN_MOTION_DOT><MEAN_MOTION_DDOT>0</MEAN_MOTION_DDOT></tleParameters></data></segment></body></omm>
<omm id="CCSDS_OMM_VERS" version="2.0">
<header><CREATION_DATE/><ORIGINATOR/></header><body><segment><metadata><OBJECT_NAME>KUIPER-00070</OBJECT_NAME><OBJECT_ID>2025-151B</OBJECT_ID><CENTER_NAME>EARTH</CENTER_NAME><REF_FRAME>TEME</REF_FRAME><TIME_SYSTEM>UTC</TIME_SYSTEM><MEAN_ELEMENT_THEORY>SGP4</MEAN_ELEMENT_THEORY></metadata><data><meanElements><EPOCH>2025-08-05T14:00:01.999872</EPOCH><MEAN_MOTION>15.27715536</MEAN_MOTION><ECCENTRICITY>.0006163</ECCENTRICITY><INCLINATION>51.8803</INCLINATION><RA_OF_ASC_NODE>189.9941</RA_OF_ASC_NODE><ARG_OF_PERICENTER>246.1722</ARG_OF_PERICENTER><MEAN_ANOMALY>19.8522</MEAN_ANOMALY></meanElements><tleParameters><EPHEMERIS_TYPE>0</EPHEMERIS_TYPE><CLASSIFICATION_TYPE>U</CLASSIFICATION_TYPE><NORAD_CAT_ID>64817</NORAD_CAT_ID><ELEMENT_SET_NO>999</ELEMENT_SET_NO><REV_AT_EPOCH>308</REV_AT_EPOCH><BSTAR>-.97866E-3</BSTAR><MEAN_MOTION_DOT>-.27151E-3</MEAN_MOTION_DOT><MEAN_MOTION_DDOT>0</MEAN_MOTION_DDOT></tleParameters></data></segment></body></omm>

</ndm>
