KUIPER-00061            
1 64521U 25134X   25217.15074255  .00033868  00000+0  96237-3 0  9996
2 64521  51.8750 125.1335 0005385 261.3662  98.6714 15.35847684  7343
KUIPER-00062            
1 64522U 25134Y   25217.58335648 -.01054037  00000+0 -42237-1 0  9993
2 64522  51.8765 123.3300 0008101 256.0242 219.5954 15.27329732  7403
KUIPER-00063            
1 64523U 25134Z   25217.58335648  .00071336  00000+0  23660-2 0  9992
2 64523  51.8772 122.8844 0003902 218.9163  96.2541 15.30596166  7405
KUIPER-00064            
1 64524U 25134AA  25217.58335648 -.00908425  00000+0 -29193-1 0  9999
2 64524  51.8772 122.6536 0000982 295.8623 139.3124 15.34485113  7715
KUIPER-00065            
1 64525U 25134AB  25217.58335648 -.00770422  00000+0 -33819-1 0  9994
2 64525  51.8770 123.6147 0008101 265.8410  17.5369 15.23919298  7649
KUIPER-00066            
1 64526U 25134AC  25217.58335648 -.00848137  00000+0 -26845-1 0  9995
2 64526  51.8770 122.7015 0001114 198.9600 205.8818 15.34776049  7411
KUIPER-00069            
1 64816U 25151A   25217.57060280  .00012082  00000+0  35162-3 0  9996
2 64816  51.8775 189.6943 0004990 207.4373 152.6350 15.35821233  4298
KUIPER-00070            
1 64817U 25151B   25217.58335648 -.00027151  00000+0 -97866-3 0  9995
2 64817  51.8803 189.9941 0006163 246.1722  19.8522 15.27715536  3084
